{"type": "FeatureCollection", "features": [ {"type": "Feature", "properties": {"norad_id": 33492, "name": "GOSAT (IBUKI)", "group": "resource", "lat": 10.339598649610581, "lon": -82.68116350373212, "alt_km": 670.3354759783388, "timestamp": "2025-12-13T05:42:57.153754+00:00", "meta": {"OBJECT_NAME": "GOSAT (IBUKI)", "OBJECT_ID": "2009-002A", "EPOCH": "2025-12-12T06:02:14.620704", "MEAN_MOTION": 14.67553692, "ECCENTRICITY": 9.341e-05, "INCLINATION": 98.0768, "RA_OF_ASC_NODE": 94.8616, "ARG_OF_PERICENTER": 91.2594, "MEAN_ANOMALY": 268.8717, "EPHEMERIS_TYPE": 0, "CLASSIFICATION_TYPE": "U", "NORAD_CAT_ID": 33492, "ELEMENT_SET_NO": 999, "REV_AT_EPOCH": 90404, "BSTAR": 0.00026039296, "MEAN_MOTION_DOT": 1.429e-05, "MEAN_MOTION_DDOT": 0}, "tle": {"line1": "1 33492U 09002A   25346.25155811  .00001429  00000+0  26039-3 0  9998", "line2": "2 33492  98.0768  94.8616 0000934  91.2594 268.8717 14.67553692904045"}}, "geometry": {"type": "Point", "coordinates": [-82.68116350373212, 10.339598649610581]}}, {"type": "Feature", "properties": {"norad_id": 35681, "name": "DEIMOS-1", "group": "resource", "lat": -77.7569579929846, "lon": -70.84514418729363, "alt_km": 654.5564100460188, "timestamp": "2025-12-13T05:42:57.153765+00:00", "meta": {"OBJECT_NAME": "DEIMOS-1", "OBJECT_ID": "2009-041A", "EPOCH": "2025-12-12T07:22:21.170208", "MEAN_MOTION": 14.74952732, "ECCENTRICITY": 0.0002735, "INCLINATION": 97.7151, "RA_OF_ASC_NODE": 146.9305, "ARG_OF_PERICENTER": 80.3247, "MEAN_ANOMALY": 279.8271, "EPHEMERIS_TYPE": 0, "CLASSIFICATION_TYPE": "U", "NORAD_CAT_ID": 35681, "ELEMENT_SET_NO": 999, "REV_AT_EPOCH": 87933, "BSTAR": 0.00021935524, "MEAN_MOTION_DOT": 1.427e-05, "MEAN_MOTION_DDOT": 0}, "tle": {"line1": "1 35681U 09041A   25346.30718947  .00001427  00000+0  21936-3 0  9993", "line2": "2 35681  97.7151 146.9305 0002735  80.3247 279.8271 14.74952732879334"}}, "geometry": {"type": "Point", "coordinates": [-70.84514418729363, -77.7569579929846]}}, {"type": "Feature", "properties": {"norad_id": 35682, "name": "DUBAISAT-1", "group": "resource", "lat": -14.574840185594061, "lon": -64.17982019770751, "alt_km": 654.3085582246758, "timestamp": "2025-12-13T05:42:57.153776+00:00", "meta": {"OBJECT_NAME": "DUBAISAT-1", "OBJECT_ID": "2009-041B", "EPOCH": "2025-12-12T07:39:51.509088", "MEAN_MOTION": 14.7460272, "ECCENTRICITY": 0.00095794, "INCLINATION": 97.9784, "RA_OF_ASC_NODE": 117.0051, "ARG_OF_PERICENTER": 316.111, "MEAN_ANOMALY": 43.9337, "EPHEMERIS_TYPE": 0, "CLASSIFICATION_TYPE": "U", "NORAD_CAT_ID": 35682, "ELEMENT_SET_NO": 999, "REV_AT_EPOCH": 87755, "BSTAR": 0.00034185309, "MEAN_MOTION_DOT": 2.23e-05, "MEAN_MOTION_DDOT": 0}, "tle": {"line1": "1 35682U 09041B   25346.31934617  .00002230  00000+0  34185-3 0  9992", "line2": "2 35682  97.9784 117.0051 0009579 316.1110  43.9337 14.74602720877552"}}, "geometry": {"type": "Point", "coordinates": [-64.17982019770751, -14.574840185594061]}}, {"type": "Feature", "properties": {"norad_id": 35931, "name": "OCEANSAT-2", "group": "resource", "lat": -56.994644821016244, "lon": 154.92625690014123, "alt_km": 913.589936134771, "timestamp": "2025-12-13T05:42:57.153788+00:00", "meta": {"OBJECT_NAME": "OCEANSAT-2", "OBJECT_ID": "2009-051A", "EPOCH": "2025-12-12T07:59:41.204256", "MEAN_MOTION": 13.99624784, "ECCENTRICITY": 0.00162336, "INCLINATION": 98.2223, "RA_OF_ASC_NODE": 346.975, "ARG_OF_PERICENTER": 46.1224, "MEAN_ANOMALY": 314.128, "EPHEMERIS_TYPE": 0, "CLASSIFICATION_TYPE": "U", "NORAD_CAT_ID": 35931, "ELEMENT_SET_NO": 999, "REV_AT_EPOCH": 85319, "BSTAR": -6.3208134e-05, "MEAN_MOTION_DOT": -1.3e-06, "MEAN_MOTION_DDOT": 0}, "tle": {"line1": "1 35931U 09051A   25346.33311579 -.00000130  00000+0 -63208-4 0  9996", "line2": "2 35931  98.2223 346.9750 0016233  46.1224 314.1280 13.99624784853195"}}, "geometry": {"type": "Point", "coordinates": [154.92625690014123, -56.994644821016244]}}, {"type": "Feature", "properties": {"norad_id": 35946, "name": "WORLDVIEW-2 (WV-2)", "group": "resource", "lat": 65.93901436364571, "lon": 38.798243694322494, "alt_km": 755.9005000212092, "timestamp": "2025-12-13T05:42:57.153800+00:00", "meta": {"OBJECT_NAME": "WORLDVIEW-2 (WV-2)", "OBJECT_ID": "2009-055A", "EPOCH": "2025-12-12T06:01:12.055872", "MEAN_MOTION": 14.37723682, "ECCENTRICITY": 0.00051464, "INCLINATION": 98.479, "RA_OF_ASC_NODE": 57.3417, "ARG_OF_PERICENTER": 72.0711, "MEAN_ANOMALY": 288.1037, "EPHEMERIS_TYPE": 0, "CLASSIFICATION_TYPE": "U", "NORAD_CAT_ID": 35946, "ELEMENT_SET_NO": 999, "REV_AT_EPOCH": 84878, "BSTAR": 0.00010703421, "MEAN_MOTION_DOT": 2.78e-06, "MEAN_MOTION_DDOT": 0}, "tle": {"line1": "1 35946U 09055A   25346.25083398  .00000278  00000+0  10703-3 0  9994", "line2": "2 35946  98.4790  57.3417 0005146  72.0711 288.1037 14.37723682848784"}}, "geometry": {"type": "Point", "coordinates": [38.798243694322494, 65.93901436364571]}}, {"type": "Feature", "properties": {"norad_id": 36036, "name": "SMOS", "group": "resource", "lat": 71.46507349304349, "lon": 18.558012572481008, "alt_km": 751.7259790906801, "timestamp": "2025-12-13T05:42:57.153811+00:00", "meta": {"OBJECT_NAME": "SMOS", "OBJECT_ID": "2009-059A", "EPOCH": "2025-12-12T05:52:18.862464", "MEAN_MOTION": 14.39740569, "ECCENTRICITY": 0.0001103, "INCLINATION": 98.438, "RA_OF_ASC_NODE": 171.3004, "ARG_OF_PERICENTER": 84.4023, "MEAN_ANOMALY": 275.7291, "EPHEMERIS_TYPE": 0, "CLASSIFICATION_TYPE": "U", "NORAD_CAT_ID": 36036, "ELEMENT_SET_NO": 999, "REV_AT_EPOCH": 84655, "BSTAR": 0.00020761174, "MEAN_MOTION_DOT": 6.07e-06, "MEAN_MOTION_DDOT": 0}, "tle": {"line1": "1 36036U 09059A   25346.24466276  .00000607  00000+0  20761-3 0  9999", "line2": "2 36036  98.4380 171.3004 0001103  84.4023 275.7291 14.39740569846553"}}, "geometry": {"type": "Point", "coordinates": [18.558012572481008, 71.46507349304349]}}, {"type": "Feature", "properties": {"norad_id": 36110, "name": "YAOGAN-7", "group": "resource", "lat": -0.3214084298198452, "lon": -130.96146681263193, "alt_km": 636.6632632298379, "timestamp": "2025-12-13T05:42:57.153821+00:00", "meta": {"OBJECT_NAME": "YAOGAN-7", "OBJECT_ID": "2009-069A", "EPOCH": "2025-12-12T06:57:57.741696", "MEAN_MOTION": 14.77731719, "ECCENTRICITY": 0.0023382, "INCLINATION": 98.0301, "RA_OF_ASC_NODE": 228.0489, "ARG_OF_PERICENTER": 282.8257, "MEAN_ANOMALY": 77.0341, "EPHEMERIS_TYPE": 0, "CLASSIFICATION_TYPE": "U", "NORAD_CAT_ID": 36110, "ELEMENT_SET_NO": 999, "REV_AT_EPOCH": 86202, "BSTAR": 0.00016008454, "MEAN_MOTION_DOT": 1.099e-05, "MEAN_MOTION_DDOT": 0}, "tle": {"line1": "1 36110U 09069A   25346.29025164  .00001099  00000+0  16008-3 0  9990", "line2": "2 36110  98.0301 228.0489 0023382 282.8257  77.0341 14.77731719862026"}}, "geometry": {"type": "Point", "coordinates": [-130.96146681263193, -0.3214084298198452]}}, {"type": "Feature", "properties": {"norad_id": 36605, "name": "TANDEM-X", "group": "resource", "lat": -40.21353852569822, "lon": -1.040910997868277, "alt_km": 515.5338515919275, "timestamp": "2025-12-13T05:42:57.153832+00:00", "meta": {"OBJECT_NAME": "TANDEM-X", "OBJECT_ID": "2010-030A", "EPOCH": "2025-12-11T11:12:43.510464", "MEAN_MOTION": 15.19157824, "ECCENTRICITY": 0.00018635, "INCLINATION": 97.4452, "RA_OF_ASC_NODE": 350.866, "ARG_OF_PERICENTER": 82.9447, "MEAN_ANOMALY": 277.1999, "EPHEMERIS_TYPE": 0, "CLASSIFICATION_TYPE": "U", "NORAD_CAT_ID": 36605, "ELEMENT_SET_NO": 999, "REV_AT_EPOCH": 85814, "BSTAR": 0.00012772132, "MEAN_MOTION_DOT": 2.617e-05, "MEAN_MOTION_DDOT": 0}, "tle": {"line1": "1 36605U 10030A   25345.46717026  .00002617  00000+0  12772-3 0  9993", "line2": "2 36605  97.4452 350.8660 0001863  82.9447 277.1999 15.19157824858146"}}, "geometry": {"type": "Point", "coordinates": [-1.040910997868277, -40.21353852569822]}}, {"type": "Feature", "properties": {"norad_id": 36795, "name": "CARTOSAT-2B", "group": "resource", "lat": -69.88159967829777, "lon": 58.18316168852935, "alt_km": 648.2488813923783, "timestamp": "2025-12-13T05:42:57.153843+00:00", "meta": {"OBJECT_NAME": "CARTOSAT-2B", "OBJECT_ID": "2010-035A", "EPOCH": "2025-12-12T07:18:08.927136", "MEAN_MOTION": 14.78725198, "ECCENTRICITY": 0.00130875, "INCLINATION": 97.7853, "RA_OF_ASC_NODE": 35.3487, "ARG_OF_PERICENTER": 77.9558, "MEAN_ANOMALY": 282.312, "EPHEMERIS_TYPE": 0, "CLASSIFICATION_TYPE": "U", "NORAD_CAT_ID": 36795, "ELEMENT_SET_NO": 999, "REV_AT_EPOCH": 83223, "BSTAR": 0.00041893665, "MEAN_MOTION_DOT": 3.029e-05, "MEAN_MOTION_DDOT": 0}, "tle": {"line1": "1 36795U 10035A   25346.30426999  .00003029  00000+0  41894-3 0  9993", "line2": "2 36795  97.7853  35.3487 0013087  77.9558 282.3120 14.78725198832239"}}, "geometry": {"type": "Point", "coordinates": [58.18316168852935, -69.88159967829777]}}, {"type": "Feature", "properties": {"norad_id": 36834, "name": "YAOGAN-10", "group": "resource", "lat": 19.136950573630372, "lon": 4.288170431178079, "alt_km": 614.5162210249691, "timestamp": "2025-12-13T05:42:57.153854+00:00", "meta": {"OBJECT_NAME": "YAOGAN-10", "OBJECT_ID": "2010-038A", "EPOCH": "2025-12-12T08:51:44.357760", "MEAN_MOTION": 14.84609139, "ECCENTRICITY": 0.00015466, "INCLINATION": 97.9148, "RA_OF_ASC_NODE": 6.1927, "ARG_OF_PERICENTER": 84.2719, "MEAN_ANOMALY": 334.1023, "EPHEMERIS_TYPE": 0, "CLASSIFICATION_TYPE": "U", "NORAD_CAT_ID": 36834, "ELEMENT_SET_NO": 999, "REV_AT_EPOCH": 82948, "BSTAR": 0.00054887661, "MEAN_MOTION_DOT": 4.585e-05, "MEAN_MOTION_DDOT": 0}, "tle": {"line1": "1 36834U 10038A   25346.36926340  .00004585  00000+0  54888-3 0  9996", "line2": "2 36834  97.9148   6.1927 0001546  84.2719 334.1023 14.84609139829488"}}, "geometry": {"type": "Point", "coordinates": [4.288170431178079, 19.136950573630372]}}]}